[{"OBJECT_NAME":"STARLINK-30572","OBJECT_ID":"2023-161T","EPOCH":"2026-03-09T13:53:27.272832","MEAN_MOTION":15.30184285,"ECCENTRICITY":0.0001185,"INCLINATION":53.1607,"RA_OF_ASC_NODE":166.1148,"ARG_OF_PERICENTER":74.0449,"MEAN_ANOMALY":286.0682,"EPHEMERIS_TYPE":0,"CLASSIFICATION_TYPE":"U","NORAD_CAT_ID":58114,"ELEMENT_SET_NO":999,"REV_AT_EPOCH":13440,"BSTAR":2.5572e-5,"MEAN_MOTION_DOT":3.98e-6,"MEAN_MOTION_DDOT":0},{"OBJECT_NAME":"OBJECT N","OBJECT_ID":"2019-093N","EPOCH":"2026-03-09T21:41:56.087232","MEAN_MOTION":15.29897693,"ECCENTRICITY":0.0006278,"INCLINATION":98.0505,"RA_OF_ASC_NODE":226.9456,"ARG_OF_PERICENTER":33.3806,"MEAN_ANOMALY":326.7828,"EPHEMERIS_TYPE":0,"CLASSIFICATION_TYPE":"U","NORAD_CAT_ID":44891,"ELEMENT_SET_NO":999,"REV_AT_EPOCH":33957,"BSTAR":0.0010567776,"MEAN_MOTION_DOT":0.00030617,"MEAN_MOTION_DDOT":0}]
